[{"OBJECT_NAME":"ONEWEB-0418","OBJECT_ID":"2021-132AA","EPOCH":"2026-03-09T20:47:10.557888","MEAN_MOTION":13.18685618,"ECCENTRICITY":0.00017991,"INCLINATION":87.9254,"RA_OF_ASC_NODE":355.1791,"ARG_OF_PERICENTER":65.9403,"MEAN_ANOMALY":294.1917,"EPHEMERIS_TYPE":0,"CLASSIFICATION_TYPE":"U","NORAD_CAT_ID":50493,"ELEMENT_SET_NO":999,"REV_AT_EPOCH":20857,"BSTAR":0.0001954387,"MEAN_MOTION_DOT":9.0e-7,"MEAN_MOTION_DDOT":0},{"OBJECT_NAME":"COSMOS 2499 DEB","OBJECT_ID":"2014-028AK","EPOCH":"2026-03-02T12:15:08.245440","MEAN_MOTION":12.78928889,"ECCENTRICITY":0.02482663,"INCLINATION":82.5618,"RA_OF_ASC_NODE":350.2491,"ARG_OF_PERICENTER":302.2475,"MEAN_ANOMALY":55.4781,"EPHEMERIS_TYPE":0,"CLASSIFICATION_TYPE":"U","NORAD_CAT_ID":55723,"ELEMENT_SET_NO":999,"REV_AT_EPOCH":14523,"BSTAR":0.007761594,"MEAN_MOTION_DOT":1.987e-5,"MEAN_MOTION_DDOT":0}]
